     2.100          NAVIGATION                              RINEX VERSION / TYPE
fic2rin                                 01/20/2017 00:21:58 PGM / RUN BY / DATE
                                                            END OF HEADER
 4 17  1 19 21 59 44.0 -.260664615780D-03  .227373675443D-12  .000000000000D+00
     .650000000000D+02 -.151250000000D+02  .539058168222D-08  .111663474912D+00
    -.670552253723D-06  .873027171474D-02  .653415918350D-05  .515372019768D+04
     .424784000000D+06 -.391155481339D-07 -.221266129518D+01  .800937414169D-07
     .982632737501D+00  .262468750000D+03  .873313913578D+00 -.809247994141D-08
    -.244653047924D-09  .100000000000D+01  .193200000000D+04  .000000000000D+00
     .240000000000D+01  .630000000000D+02 -.195577740669D-07  .650000000000D+02
     .420636000000D+06  .400000000000D+01
 2 17  1 19 23 59 44.0  .490669161081D-03 -.648014975013D-11  .000000000000D+00
     .160000000000D+02 -.169687500000D+02  .497627871055D-08 -.169691102729D+01
    -.765547156334D-06  .164985725423D-01  .561214983463D-05  .515371215820D+04
     .431984000000D+06  .415369868279D-06 -.187892199310D+00 -.372529029846D-08
     .945522872640D+00  .260968750000D+03 -.203674326761D+01 -.816569727693D-08
     .166792661870D-09  .100000000000D+01  .193200000000D+04  .000000000000D+00
     .240000000000D+01  .000000000000D+00 -.204890966415D-07  .160000000000D+02
     .424806000000D+06  .400000000000D+01
 3 17  1 19 23 59 44.0 -.106231775135D-03 -.795807864051D-12  .000000000000D+00
     .190000000000D+02 -.272187500000D+02  .449875881993D-08  .309988002859D+01
    -.139139592648D-05  .481800059788D-03  .831112265587D-05  .515381772423D+04
     .431984000000D+06 -.186264514923D-07  .904430564409D+00  .223517417908D-07
     .959564203209D+00  .218312500000D+03  .564864485947D+00 -.801747681723D-08
    -.532165023952D-10  .100000000000D+01  .193200000000D+04  .000000000000D+00
     .240000000000D+01  .000000000000D+00  .186264514923D-08  .190000000000D+02
     .424806000000D+06  .400000000000D+01
 4 17  1 19 23 59 44.0 -.260662753135D-03  .227373675443D-12  .000000000000D+00
     .660000000000D+02 -.185312500000D+02  .545094133930D-08  .116181871780D+01
    -.825151801109D-06  .872995366808D-02  .671669840813D-05  .515371975708D+04
     .431984000000D+06 -.912696123123D-07 -.221271945934D+01  .651925802231D-07
     .982630889835D+00  .263843750000D+03  .873318031693D+00 -.807747931658D-08
    -.255367779950D-09  .100000000000D+01  .193200000000D+04  .000000000000D+00
     .240000000000D+01  .630000000000D+02 -.195577740669D-07  .660000000000D+02
     .424806000000D+06  .400000000000D+01
 1 17  1 20  0  0  0.0  .472390092909D-04  .909494701773D-12  .000000000000D+00
     .560000000000D+02 -.193750000000D+02  .442911306177D-08 -.212366358835D+01
    -.961124897003D-06  .614251953084D-02  .639446079731D-05  .515369324303D+04
     .432000000000D+06  .931322574615D-08 -.137270730906D+00 -.502914190292D-07
     .966661288408D+00  .260000000000D+03  .549701695545D+00 -.800069040373D-08
     .176435920693D-09  .100000000000D+01  .193200000000D+04  .000000000000D+00
     .240000000000D+01  .000000000000D+00  .512227416039D-08  .560000000000D+02
     .424806000000D+06  .400000000000D+01
 5 17  1 20  0  0  0.0 -.653085298836D-04  .216004991671D-11  .000000000000D+00
     .290000000000D+02 -.308437500000D+02  .484520182210D-08  .814853310871D+00
    -.149384140968D-05  .491642171983D-02  .854395329952D-05  .515367040825D+04
     .432000000000D+06 -.298023223877D-07  .889324693223D+00  .745058059692D-07
     .946568118830D+00  .206625000000D+03  .562978676287D+00 -.820534178542D-08
    -.159292349451D-09  .100000000000D+01  .193200000000D+04  .000000000000D+00
     .240000000000D+01  .000000000000D+00 -.107102096081D-07  .290000000000D+02
     .424806000000D+06  .400000000000D+01
 6 17  1 20  0  0  0.0  .301491003484D-03  .500222085975D-11  .000000000000D+00
     .650000000000D+02 -.215312500000D+02  .458090509880D-08 -.175651321081D+01
    -.109151005745D-05  .550426309928D-03  .618398189545D-05  .515359893036D+04
     .432000000000D+06  .335276126862D-07 -.145655723831D+00  .931322574615D-08
     .966453009836D+00  .265187500000D+03 -.142066618024D+01 -.814783939022D-08
     .110718897601D-09  .100000000000D+01  .193200000000D+04  .000000000000D+00
     .240000000000D+01  .000000000000D+00  .419095158577D-08  .650000000000D+02
     .424806000000D+06  .400000000000D+01
 7 17  1 20  0  0  0.0  .390953850001D-03 -.363797880709D-11  .000000000000D+00
     .590000000000D+02  .385937500000D+02  .463519307440D-08 -.274806623466D+01
     .191107392311D-05  .100814055186D-01  .550039112568D-05  .515361109543D+04
     .432000000000D+06 -.931322574615D-08  .302047826853D+01 -.189989805222D-06
     .963975584401D+00  .277593750000D+03 -.261366979400D+01 -.806140721854D-08
     .928610108910D-11  .100000000000D+01  .193200000000D+04  .000000000000D+00
     .240000000000D+01  .000000000000D+00 -.111758708954D-07  .590000000000D+02
     .424806000000D+06  .400000000000D+01
 8 17  1 20  0  0  0.0 -.466071069241D-04 -.136424205266D-11  .000000000000D+00
     .980000000000D+02 -.178437500000D+02  .430196490839D-08  .717792274609D+00
    -.107288360596D-05  .241103931330D-02  .771880149841D-05  .515357868767D+04
     .432000000000D+06  .130385160446D-07 -.119949843314D+01 -.540167093277D-07
     .965448744370D+00  .234718750000D+03 -.917496647955D+00 -.804569227824D-08
     .239295681911D-10  .100000000000D+01  .193200000000D+04  .000000000000D+00
     .240000000000D+01  .000000000000D+00  .465661287308D-08  .980000000000D+02
     .424806000000D+06  .400000000000D+01
 9 17  1 20  0  0  0.0  .286897178739D-03  .750333128963D-11  .000000000000D+00
     .880000000000D+02  .451250000000D+02  .467198032102D-08  .234766839004D+00
     .216066837311D-05  .896842684597D-03  .877119600773D-05  .515370625305D+04
     .432000000000D+06 -.111758708954D-07  .194202194791D+01 -.186264514923D-08
     .953628404325D+00  .205218750000D+03  .172554413915D+01 -.807140763510D-08
     .589310261424D-10  .100000000000D+01  .193200000000D+04  .000000000000D+00
     .240000000000D+01  .000000000000D+00  .139698386192D-08  .880000000000D+02
     .424806000000D+06  .400000000000D+01
10 17  1 20  0  0  0.0 -.112347770482D-03  .227373675443D-11  .000000000000D+00
     .480000000000D+02 -.345625000000D+02  .458911972669D-08  .210290922515D+01
    -.173039734364D-05  .212120474316D-02  .830739736557D-05  .515367652702D+04
     .432000000000D+06 -.316649675369D-07  .900628296955D+00 -.558793544769D-08
     .959758913217D+00  .217750000000D+03 -.292317011176D+01 -.806069290307D-08
    -.105004373854D-09  .100000000000D+01  .193200000000D+04  .000000000000D+00
     .240000000000D+01  .000000000000D+00  .232830643654D-08  .480000000000D+02
     .424806000000D+06  .400000000000D+01
11 17  1 20  0  0  0.0 -.667501240969D-03 -.113686837722D-12  .000000000000D+00
     .740000000000D+02 -.434375000000D+01  .578702676718D-08 -.270892369048D+01
    -.132247805595D-06  .166380624287D-01  .594370067120D-05  .515369712639D+04
     .432000000000D+06  .175088644028D-06 -.530789516325D+00  .102445483208D-06
     .899563983091D+00  .229343750000D+03  .161384896866D+01 -.847321008607D-08
     .210723063176D-09  .100000000000D+01  .193200000000D+04  .000000000000D+00
     .240000000000D+01  .000000000000D+00 -.121071934700D-07  .740000000000D+02
     .424806000000D+06  .400000000000D+01
12 17  1 20  0  0  0.0  .388826243579D-03 -.227373675443D-12  .000000000000D+00
     .350000000000D+02 -.268437500000D+02  .387230415415D-08  .294372400544D+01
    -.148452818394D-05  .630416790955D-02  .729411840439D-05  .515359908485D+04
     .432000000000D+06 -.260770320892D-07 -.218168182365D+01 -.987201929092D-07
     .989794571454D+00  .250562500000D+03  .784567777449D+00 -.774889420112D-08
    -.238224208709D-09  .100000000000D+01  .193200000000D+04  .000000000000D+00
     .240000000000D+01  .000000000000D+00 -.121071934700D-07  .350000000000D+02
     .424806000000D+06  .400000000000D+01
13 17  1 20  0  0  0.0 -.658347271383D-04 -.181898940355D-11  .000000000000D+00
     .340000000000D+02  .539062500000D+02  .432268005698D-08 -.170321599502D+01
     .284984707832D-05  .407937227283D-02  .916048884392D-05  .515368967438D+04
     .432000000000D+06 -.149011611938D-07  .206635200392D+01  .800937414169D-07
     .969853881827D+00  .208625000000D+03  .184937745109D+01 -.792461580634D-08
     .110004582132D-09  .100000000000D+01  .193200000000D+04  .000000000000D+00
     .240000000000D+01  .000000000000D+00 -.111758708954D-07  .340000000000D+02
     .424806000000D+06  .400000000000D+01
14 17  1 20  0  0  0.0 -.550141558051D-04 -.170530256582D-11  .000000000000D+00
     .320000000000D+02  .363125000000D+02  .459662003910D-08 -.371801943546D+00
     .195391476154D-05  .863817066420D-02  .912137329578D-05  .515361877441D+04
     .432000000000D+06 -.726431608200D-07  .202774596008D+01  .819563865662D-07
     .962344755510D+00  .208062500000D+03 -.195274949400D+01 -.815926843771D-08
     .835749098019D-10  .100000000000D+01  .193200000000D+04  .000000000000D+00
     .240000000000D+01  .000000000000D+00 -.931322574615D-08  .320000000000D+02
     .424806000000D+06  .400000000000D+01
15 17  1 20  0  0  0.0 -.340947881341D-03 -.102318153949D-11  .000000000000D+00
     .770000000000D+02  .419062500000D+02  .525271879682D-08 -.801218725656D+00
     .228546559811D-05  .904277327936D-02  .932626426220D-05  .515373383713D+04
     .432000000000D+06  .178813934326D-06  .188356973211D+01  .782310962677D-07
     .929268429360D+00  .179125000000D+03  .563586095966D+00 -.843070831570D-08
     .710743891050D-10  .100000000000D+01  .193200000000D+04  .000000000000D+00
     .240000000000D+01  .000000000000D+00 -.107102096081D-07  .770000000000D+02
     .424806000000D+06  .400000000000D+01
